[
  {
    "COMMENT": "GENERATED VIA SPACETRACK.ORG API",
    "ORIGINATOR": "18 SPCS",
    "NORAD_CAT_ID": "27421",
    "OBJECT_NAME": "SPOT 5",
    "OBJECT_TYPE": "PAYLOAD",
    "CLASSIFICATION_TYPE": "U",
    "INTLDES": "02021A",
    "EPOCH": "2023-04-23 16:25:59",
    "EPOCH_MICROSECONDS": "545344",
    "MEAN_MOTION": "14.52604365",
    "ECCENTRICITY": "0.0133007",
    "INCLINATION": "98.1424",
    "RA_OF_ASC_NODE": "178.2733",
    "ARG_OF_PERICENTER": "241.8824",
    "MEAN_ANOMALY": "116.886",
    "EPHEMERIS_TYPE": "0",
    "ELEMENT_SET_NO": "999",
    "REV_AT_EPOCH": "9573",
    "BSTAR": "0.00000021861",
    "MEAN_MOTION_DOT": "-0.00000051",
    "MEAN_MOTION_DDOT": "0",
    "FILE": "3892935",
    "TLE_LINE0": "0 SPOT 5",
    "TLE_LINE1": "1 27421U 02021A   23113.68471696 -.00000051  00000-0  21861-6 0  9999",
    "TLE_LINE2": "2 27421  98.1424 178.2733 0133007 241.8824 116.8860 14.52604365 95730",
    "OBJECT_ID": "2002-021A",
    "OBJECT_NUMBER": "27421",
    "SEMIMAJOR_AXIS": "7095.292",
    "PERIOD": "99.132",
    "APOGEE": "811.529",
    "PERIGEE": "622.785",
    "DECAYED": "0"
  },
  {
    "COMMENT": "GENERATED VIA SPACETRACK.ORG API",
    "ORIGINATOR": "18 SPCS",
    "NORAD_CAT_ID": "27421",
    "OBJECT_NAME": "SPOT 5",
    "OBJECT_TYPE": "PAYLOAD",
    "CLASSIFICATION_TYPE": "U",
    "INTLDES": "02021A",
    "EPOCH": "2023-04-26 18:49:37",
    "EPOCH_MICROSECONDS": "141824",
    "MEAN_MOTION": "14.52607508",
    "ECCENTRICITY": "0.0132571",
    "INCLINATION": "98.1432",
    "RA_OF_ASC_NODE": "181.2864",
    "ARG_OF_PERICENTER": "232.3946",
    "MEAN_ANOMALY": "126.5469",
    "EPHEMERIS_TYPE": "0",
    "ELEMENT_SET_NO": "999",
    "REV_AT_EPOCH": "9618",
    "BSTAR": "-0.0000025513",
    "MEAN_MOTION_DOT": "-0.00000063",
    "MEAN_MOTION_DDOT": "0",
    "FILE": "3894261",
    "TLE_LINE0": "0 SPOT 5",
    "TLE_LINE1": "1 27421U 02021A   23116.78445766 -.00000063  00000-0 -25513-5 0  9993",
    "TLE_LINE2": "2 27421  98.1432 181.2864 0132571 232.3946 126.5469 14.52607508 96188",
    "OBJECT_ID": "2002-021A",
    "OBJECT_NUMBER": "27421",
    "SEMIMAJOR_AXIS": "7095.282",
    "PERIOD": "99.132",
    "APOGEE": "811.210",
    "PERIGEE": "623.084",
    "DECAYED": "0"
  },
  {
    "COMMENT": "GENERATED VIA SPACETRACK.ORG API",
    "ORIGINATOR": "18 SPCS",
    "NORAD_CAT_ID": "27421",
    "OBJECT_NAME": "SPOT 5",
    "OBJECT_TYPE": "PAYLOAD",
    "CLASSIFICATION_TYPE": "U",
    "INTLDES": "02021A",
    "EPOCH": "2023-05-10 23:37:33",
    "EPOCH_MICROSECONDS": "844800",
    "MEAN_MOTION": "14.52620562",
    "ECCENTRICITY": "0.0133685",
    "INCLINATION": "98.1396",
    "RA_OF_ASC_NODE": "195.0721",
    "ARG_OF_PERICENTER": "188.1556",
    "MEAN_ANOMALY": "224.4416",
    "EPHEMERIS_TYPE": "0",
    "ELEMENT_SET_NO": "999",
    "REV_AT_EPOCH": "9824",
    "BSTAR": "0.00003698",
    "MEAN_MOTION_DOT": "0.0000012",
    "MEAN_MOTION_DDOT": "0",
    "FILE": "3904826",
    "TLE_LINE0": "0 SPOT 5",
    "TLE_LINE1": "1 27421U 02021A   23130.98441950  .00000120  00000-0  36980-4 0  9993",
    "TLE_LINE2": "2 27421  98.1396 195.0721 0133685 188.1556 224.4416 14.52620562 98248",
    "OBJECT_ID": "2002-021A",
    "OBJECT_NUMBER": "27421",
    "SEMIMAJOR_AXIS": "7095.239",
    "PERIOD": "99.131",
    "APOGEE": "811.957",
    "PERIGEE": "622.252",
    "DECAYED": "0"
  },
  {
    "COMMENT": "GENERATED VIA SPACETRACK.ORG API",
    "ORIGINATOR": "18 SPCS",
    "NORAD_CAT_ID": "27421",
    "OBJECT_NAME": "SPOT 5",
    "OBJECT_TYPE": "PAYLOAD",
    "CLASSIFICATION_TYPE": "U",
    "INTLDES": "02021A",
    "EPOCH": "2023-05-11 10:57:22",
    "EPOCH_MICROSECONDS": "945248",
    "MEAN_MOTION": "14.52622433",
    "ECCENTRICITY": "0.0133613",
    "INCLINATION": "98.1398",
    "RA_OF_ASC_NODE": "195.5302",
    "ARG_OF_PERICENTER": "186.7623",
    "MEAN_ANOMALY": "173.1776",
    "EPHEMERIS_TYPE": "0",
    "ELEMENT_SET_NO": "999",
    "REV_AT_EPOCH": "9831",
    "BSTAR": "0.00010889",
    "MEAN_MOTION_DOT": "0.00000451",
    "MEAN_MOTION_DDOT": "0",
    "FILE": "3905156",
    "TLE_LINE0": "0 SPOT 5",
    "TLE_LINE1": "1 27421U 02021A   23131.45651557  .00000451  00000-0  10889-3 0  9998",
    "TLE_LINE2": "2 27421  98.1398 195.5302 0133613 186.7623 173.1776 14.52622433 98316",
    "OBJECT_ID": "2002-021A",
    "OBJECT_NUMBER": "27421",
    "SEMIMAJOR_AXIS": "7095.233",
    "PERIOD": "99.131",
    "APOGEE": "811.900",
    "PERIGEE": "622.297",
    "DECAYED": "0"
  },
  {
    "COMMENT": "GENERATED VIA SPACETRACK.ORG API",
    "ORIGINATOR": "18 SPCS",
    "NORAD_CAT_ID": "27421",
    "OBJECT_NAME": "SPOT 5",
    "OBJECT_TYPE": "PAYLOAD",
    "CLASSIFICATION_TYPE": "U",
    "INTLDES": "02021A",
    "EPOCH": "2023-05-11 10:57:22",
    "EPOCH_MICROSECONDS": "945248",
    "MEAN_MOTION": "14.52622433",
    "ECCENTRICITY": "0.0133613",
    "INCLINATION": "98.1398",
    "RA_OF_ASC_NODE": "195.5302",
    "ARG_OF_PERICENTER": "186.7623",
    "MEAN_ANOMALY": "173.1776",
    "EPHEMERIS_TYPE": "0",
    "ELEMENT_SET_NO": "999",
    "REV_AT_EPOCH": "9831",
    "BSTAR": "0.00010889",
    "MEAN_MOTION_DOT": "0.00000451",
    "MEAN_MOTION_DDOT": "0",
    "FILE": "3905210",
    "TLE_LINE0": "0 SPOT 5",
    "TLE_LINE1": "1 27421U 02021A   23131.45651557  .00000451  00000-0  10889-3 0  9998",
    "TLE_LINE2": "2 27421  98.1398 195.5302 0133613 186.7623 173.1776 14.52622433 98316",
    "OBJECT_ID": "2002-021A",
    "OBJECT_NUMBER": "27421",
    "SEMIMAJOR_AXIS": "7095.233",
    "PERIOD": "99.131",
    "APOGEE": "811.900",
    "PERIGEE": "622.297",
    "DECAYED": "0"
  },
  {
    "COMMENT": "GENERATED VIA SPACETRACK.ORG API",
    "ORIGINATOR": "18 SPCS",
    "NORAD_CAT_ID": "27421",
    "OBJECT_NAME": "SPOT 5",
    "OBJECT_TYPE": "PAYLOAD",
    "CLASSIFICATION_TYPE": "U",
    "INTLDES": "02021A",
    "EPOCH": "2023-05-11 17:34:08",
    "EPOCH_MICROSECONDS": "834016",
    "MEAN_MOTION": "14.52621377",
    "ECCENTRICITY": "0.0133642",
    "INCLINATION": "98.1394",
    "RA_OF_ASC_NODE": "195.7974",
    "ARG_OF_PERICENTER": "185.8689",
    "MEAN_ANOMALY": "174.0896",
    "EPHEMERIS_TYPE": "0",
    "ELEMENT_SET_NO": "999",
    "REV_AT_EPOCH": "9835",
    "BSTAR": "0.0000561",
    "MEAN_MOTION_DOT": "0.00000208",
    "MEAN_MOTION_DDOT": "0",
    "FILE": "3905411",
    "TLE_LINE0": "0 SPOT 5",
    "TLE_LINE1": "1 27421U 02021A   23131.73204669  .00000208  00000-0  56100-4 0  9994",
    "TLE_LINE2": "2 27421  98.1394 195.7974 0133642 185.8689 174.0896 14.52621377 98356",
    "OBJECT_ID": "2002-021A",
    "OBJECT_NUMBER": "27421",
    "SEMIMAJOR_AXIS": "7095.237",
    "PERIOD": "99.131",
    "APOGEE": "811.924",
    "PERIGEE": "622.280",
    "DECAYED": "0"
  },
  {
    "COMMENT": "GENERATED VIA SPACETRACK.ORG API",
    "ORIGINATOR": "18 SPCS",
    "NORAD_CAT_ID": "27421",
    "OBJECT_NAME": "SPOT 5",
    "OBJECT_TYPE": "PAYLOAD",
    "CLASSIFICATION_TYPE": "U",
    "INTLDES": "02021A",
    "EPOCH": "2023-05-11 17:34:08",
    "EPOCH_MICROSECONDS": "834016",
    "MEAN_MOTION": "14.52621377",
    "ECCENTRICITY": "0.0133642",
    "INCLINATION": "98.1394",
    "RA_OF_ASC_NODE": "195.7974",
    "ARG_OF_PERICENTER": "185.8689",
    "MEAN_ANOMALY": "174.0896",
    "EPHEMERIS_TYPE": "0",
    "ELEMENT_SET_NO": "999",
    "REV_AT_EPOCH": "9835",
    "BSTAR": "0.0000561",
    "MEAN_MOTION_DOT": "0.00000208",
    "MEAN_MOTION_DDOT": "0",
    "FILE": "3905576",
    "TLE_LINE0": "0 SPOT 5",
    "TLE_LINE1": "1 27421U 02021A   23131.73204669  .00000208  00000-0  56100-4 0  9994",
    "TLE_LINE2": "2 27421  98.1394 195.7974 0133642 185.8689 174.0896 14.52621377 98356",
    "OBJECT_ID": "2002-021A",
    "OBJECT_NUMBER": "27421",
    "SEMIMAJOR_AXIS": "7095.237",
    "PERIOD": "99.131",
    "APOGEE": "811.924",
    "PERIGEE": "622.280",
    "DECAYED": "0"
  },
  {
    "COMMENT": "GENERATED VIA SPACETRACK.ORG API",
    "ORIGINATOR": "18 SPCS",
    "NORAD_CAT_ID": "27421",
    "OBJECT_NAME": "SPOT 5",
    "OBJECT_TYPE": "PAYLOAD",
    "CLASSIFICATION_TYPE": "U",
    "INTLDES": "02021A",
    "EPOCH": "2023-05-11 22:31:43",
    "EPOCH_MICROSECONDS": "348224",
    "MEAN_MOTION": "14.52622109",
    "ECCENTRICITY": "0.0133656",
    "INCLINATION": "98.1398",
    "RA_OF_ASC_NODE": "195.9986",
    "ARG_OF_PERICENTER": "185.238",
    "MEAN_ANOMALY": "174.746",
    "EPHEMERIS_TYPE": "0",
    "ELEMENT_SET_NO": "999",
    "REV_AT_EPOCH": "9838",
    "BSTAR": "0.000077278",
    "MEAN_MOTION_DOT": "0.00000305",
    "MEAN_MOTION_DDOT": "0",
    "FILE": "3905722",
    "TLE_LINE0": "0 SPOT 5",
    "TLE_LINE1": "1 27421U 02021A   23131.93869616  .00000305  00000-0  77278-4 0  9992",
    "TLE_LINE2": "2 27421  98.1398 195.9986 0133656 185.2380 174.7460 14.52622109 98383",
    "OBJECT_ID": "2002-021A",
    "OBJECT_NUMBER": "27421",
    "SEMIMAJOR_AXIS": "7095.234",
    "PERIOD": "99.131",
    "APOGEE": "811.931",
    "PERIGEE": "622.267",
    "DECAYED": "0"
  },
  {
    "COMMENT": "GENERATED VIA SPACETRACK.ORG API",
    "ORIGINATOR": "18 SPCS",
    "NORAD_CAT_ID": "27421",
    "OBJECT_NAME": "SPOT 5",
    "OBJECT_TYPE": "PAYLOAD",
    "CLASSIFICATION_TYPE": "U",
    "INTLDES": "02021A",
    "EPOCH": "2023-05-12 08:26:52",
    "EPOCH_MICROSECONDS": "101888",
    "MEAN_MOTION": "14.52622936",
    "ECCENTRICITY": "0.0133651",
    "INCLINATION": "98.1399",
    "RA_OF_ASC_NODE": "196.4",
    "ARG_OF_PERICENTER": "183.9832",
    "MEAN_ANOMALY": "176.0328",
    "EPHEMERIS_TYPE": "0",
    "ELEMENT_SET_NO": "999",
    "REV_AT_EPOCH": "9844",
    "BSTAR": "0.000093941",
    "MEAN_MOTION_DOT": "0.00000382",
    "MEAN_MOTION_DDOT": "0",
    "FILE": "3905921",
    "TLE_LINE0": "0 SPOT 5",
    "TLE_LINE1": "1 27421U 02021A   23132.35199192  .00000382  00000-0  93941-4 0  9994",
    "TLE_LINE2": "2 27421  98.1399 196.4000 0133651 183.9832 176.0328 14.52622936 98442",
    "OBJECT_ID": "2002-021A",
    "OBJECT_NUMBER": "27421",
    "SEMIMAJOR_AXIS": "7095.232",
    "PERIOD": "99.131",
    "APOGEE": "811.925",
    "PERIGEE": "622.268",
    "DECAYED": "0"
  }
]